{
  "type": "FeatureCollection",
  "features": [
    {
      "type": "Feature",
      "properties": {
        "norad_id": 37978,
        "name": "COSMOS 2251 DEB",
        "group": "cosmos-2251-debris",
        "lat": -72.50084592918697,
        "lon": 44.04513873481264,
        "alt_km": 359.80768665625783,
        "timestamp": "2025-12-03T19:33:07.375187+00:00",
        "meta_object_name": "COSMOS 2251 DEB",
        "meta_object_id": "1993-036BQD",
        "meta_epoch": "2025-11-19T05:08:53.100672",
        "meta_mean_motion": 15.61137081,
        "meta_eccentricity": 0.00148985,
        "meta_inclination": 74.0238,
        "meta_ra_of_asc_node": 142.2198,
        "meta_arg_of_pericenter": 140.9849,
        "meta_mean_anomaly": 219.2448,
        "meta_ephemeris_type": 0,
        "meta_classification_type": "U",
        "meta_norad_cat_id": 37978,
        "meta_element_set_no": 999,
        "meta_rev_at_epoch": 8032,
        "meta_bstar": 0.0043958825,
        "meta_mean_motion_dot": 0.0039117,
        "meta_mean_motion_ddot": 0,
        "tle_line1": "1 37978U 93036BQD 25323.21450348  .00391170  00000+0  43959-2 0  9999",
        "tle_line2": "2 37978  74.0238 142.2198 0014898 140.9849 219.2448 15.61137081 80328"
      },
      "geometry": {
        "type": "Point",
        "coordinates": [
          44.04513873481264,
          -72.50084592918697
        ]
      }
    },
    {
      "type": "Feature",
      "properties": {
        "norad_id": 37985,
        "name": "COSMOS 2251 DEB",
        "group": "cosmos-2251-debris",
        "lat": -20.738988361295974,
        "lon": 108.34733679959726,
        "alt_km": 791.4110440708091,
        "timestamp": "2025-12-03T19:33:07.375197+00:00",
        "meta_object_name": "COSMOS 2251 DEB",
        "meta_object_id": "1993-036BQL",
        "meta_epoch": "2025-11-30T03:38:35.089728",
        "meta_mean_motion": 14.35476198,
        "meta_eccentricity": 0.00203975,
        "meta_inclination": 74.025,
        "meta_ra_of_asc_node": 288.8408,
        "meta_arg_of_pericenter": 55.5438,
        "meta_mean_anomaly": 304.7638,
        "meta_ephemeris_type": 0,
        "meta_classification_type": "U",
        "meta_norad_cat_id": 37985,
        "meta_element_set_no": 999,
        "meta_rev_at_epoch": 64736,
        "meta_bstar": 6.4630742e-05,
        "meta_mean_motion_dot": 1.6e-06,
        "meta_mean_motion_ddot": 0,
        "tle_line1": "1 37985U 93036BQL 25334.15179502  .00000160  00000+0  64631-4 0  9990",
        "tle_line2": "2 37985  74.0250 288.8408 0020397  55.5438 304.7638 14.35476198647366"
      },
      "geometry": {
        "type": "Point",
        "coordinates": [
          108.34733679959726,
          -20.738988361295974
        ]
      }
    },
    {
      "type": "Feature",
      "properties": {
        "norad_id": 37988,
        "name": "COSMOS 2251 DEB",
        "group": "cosmos-2251-debris",
        "lat": -32.52884359388752,
        "lon": -128.23164605065472,
        "alt_km": 700.6844998139695,
        "timestamp": "2025-12-03T19:33:07.375207+00:00",
        "meta_object_name": "COSMOS 2251 DEB",
        "meta_object_id": "1993-036BQP",
        "meta_epoch": "2025-12-03T03:52:26.915232",
        "meta_mean_motion": 14.6871152,
        "meta_eccentricity": 0.00633297,
        "meta_inclination": 74.0639,
        "meta_ra_of_asc_node": 42.5299,
        "meta_arg_of_pericenter": 83.2274,
        "meta_mean_anomaly": 277.6097,
        "meta_ephemeris_type": 0,
        "meta_classification_type": "U",
        "meta_norad_cat_id": 37988,
        "meta_element_set_no": 999,
        "meta_rev_at_epoch": 23255,
        "meta_bstar": 0.0011291446,
        "meta_mean_motion_dot": 6.755e-05,
        "meta_mean_motion_ddot": 0,
        "tle_line1": "1 37988U 93036BQP 25337.16142263  .00006755  00000+0  11291-2 0  9999",
        "tle_line2": "2 37988  74.0639  42.5299 0063329  83.2274 277.6097 14.68711520232556"
      },
      "geometry": {
        "type": "Point",
        "coordinates": [
          -128.23164605065472,
          -32.52884359388752
        ]
      }
    },
    {
      "type": "Feature",
      "properties": {
        "norad_id": 37993,
        "name": "COSMOS 2251 DEB",
        "group": "cosmos-2251-debris",
        "lat": -71.84066678506734,
        "lon": 123.09761583502946,
        "alt_km": 685.426381960584,
        "timestamp": "2025-12-03T19:33:07.375217+00:00",
        "meta_object_name": "COSMOS 2251 DEB",
        "meta_object_id": "1993-036BQU",
        "meta_epoch": "2025-12-01T21:52:04.124640",
        "meta_mean_motion": 14.59713379,
        "meta_eccentricity": 0.0022073,
        "meta_inclination": 74.0242,
        "meta_ra_of_asc_node": 187.5873,
        "meta_arg_of_pericenter": 277.3102,
        "meta_mean_anomaly": 82.5554,
        "meta_ephemeris_type": 0,
        "meta_classification_type": "U",
        "meta_norad_cat_id": 37993,
        "meta_element_set_no": 999,
        "meta_rev_at_epoch": 65159,
        "meta_bstar": 0.0013360965,
        "meta_mean_motion_dot": 6.369e-05,
        "meta_mean_motion_ddot": 0,
        "tle_line1": "1 37993U 93036BQU 25335.91115885  .00006369  00000+0  13361-2 0  9997",
        "tle_line2": "2 37993  74.0242 187.5873 0022073 277.3102  82.5554 14.59713379651591"
      },
      "geometry": {
        "type": "Point",
        "coordinates": [
          123.09761583502946,
          -71.84066678506734
        ]
      }
    },
    {
      "type": "Feature",
      "properties": {
        "norad_id": 37994,
        "name": "COSMOS 2251 DEB",
        "group": "cosmos-2251-debris",
        "lat": -60.516099252463256,
        "lon": -98.2470060592605,
        "alt_km": 763.3671903732466,
        "timestamp": "2025-12-03T19:33:07.375228+00:00",
        "meta_object_name": "COSMOS 2251 DEB",
        "meta_object_id": "1993-036BQV",
        "meta_epoch": "2025-12-03T06:30:34.271136",
        "meta_mean_motion": 14.39585493,
        "meta_eccentricity": 0.0022479,
        "meta_inclination": 74.0358,
        "meta_ra_of_asc_node": 293.1728,
        "meta_arg_of_pericenter": 14.5973,
        "meta_mean_anomaly": 345.5826,
        "meta_ephemeris_type": 0,
        "meta_classification_type": "U",
        "meta_norad_cat_id": 37994,
        "meta_element_set_no": 999,
        "meta_rev_at_epoch": 76928,
        "meta_bstar": 0.0005619,
        "meta_mean_motion_dot": 1.734e-05,
        "meta_mean_motion_ddot": 0,
        "tle_line1": "1 37994U 93036BQV 25337.27122999  .00001734  00000+0  56190-3 0  9992",
        "tle_line2": "2 37994  74.0358 293.1728 0022479  14.5973 345.5826 14.39585493769282"
      },
      "geometry": {
        "type": "Point",
        "coordinates": [
          -98.2470060592605,
          -60.516099252463256
        ]
      }
    },
    {
      "type": "Feature",
      "properties": {
        "norad_id": 37996,
        "name": "COSMOS 2251 DEB",
        "group": "cosmos-2251-debris",
        "lat": 58.92278815587688,
        "lon": -112.81260882598806,
        "alt_km": 853.063046842175,
        "timestamp": "2025-12-03T19:33:07.375238+00:00",
        "meta_object_name": "COSMOS 2251 DEB",
        "meta_object_id": "1993-036BQX",
        "meta_epoch": "2025-11-16T18:35:00.708864",
        "meta_mean_motion": 14.09591608,
        "meta_eccentricity": 0.02219827,
        "meta_inclination": 74.0658,
        "meta_ra_of_asc_node": 248.8308,
        "meta_arg_of_pericenter": 5.4709,
        "meta_mean_anomaly": 354.8776,
        "meta_ephemeris_type": 0,
        "meta_classification_type": "U",
        "meta_norad_cat_id": 37996,
        "meta_element_set_no": 999,
        "meta_rev_at_epoch": 55769,
        "meta_bstar": 0.0096790999,
        "meta_mean_motion_dot": 0.00021331,
        "meta_mean_motion_ddot": 0,
        "tle_line1": "1 37996U 93036BQX 25320.77431376  .00021331  00000+0  96791-2 0  9998",
        "tle_line2": "2 37996  74.0658 248.8308 0221982   5.4709 354.8776 14.09591608557693"
      },
      "geometry": {
        "type": "Point",
        "coordinates": [
          -112.81260882598806,
          58.92278815587688
        ]
      }
    },
    {
      "type": "Feature",
      "properties": {
        "norad_id": 37998,
        "name": "COSMOS 2251 DEB",
        "group": "cosmos-2251-debris",
        "lat": 9.674126901272368,
        "lon": -105.46509035644556,
        "alt_km": 731.626215704734,
        "timestamp": "2025-12-03T19:33:07.375249+00:00",
        "meta_object_name": "COSMOS 2251 DEB",
        "meta_object_id": "1993-036BQZ",
        "meta_epoch": "2025-11-29T12:31:01.771392",
        "meta_mean_motion": 14.45395467,
        "meta_eccentricity": 0.00197878,
        "meta_inclination": 74.0369,
        "meta_ra_of_asc_node": 259.7366,
        "meta_arg_of_pericenter": 336.2714,
        "meta_mean_anomaly": 23.753,
        "meta_ephemeris_type": 0,
        "meta_classification_type": "U",
        "meta_norad_cat_id": 37998,
        "meta_element_set_no": 999,
        "meta_rev_at_epoch": 64096,
        "meta_bstar": 0.00059073677,
        "meta_mean_motion_dot": 2.057e-05,
        "meta_mean_motion_ddot": 0,
        "tle_line1": "1 37998U 93036BQZ 25333.52154828  .00002057  00000+0  59074-3 0  9999",
        "tle_line2": "2 37998  74.0369 259.7366 0019787 336.2714  23.7530 14.45395467640966"
      },
      "geometry": {
        "type": "Point",
        "coordinates": [
          -105.46509035644556,
          9.674126901272368
        ]
      }
    }
  ]
}